STARLINK-31828          
1 59767U 24091Q   26068.29930572 -.00000562  00000+0 -68457-5 0  9998
2 59767  53.1616  28.7656 0001132  92.1509 267.9622 15.30193858102948
FLOCK 4G-13             
1 62621U 25009N   26068.70638971  .00053076  00000+0  16695-2 0  9995
2 62621  97.4019 151.0918 0003801 292.7207  67.3633 15.32770015 63700
